#dV2023  1 16 10  0  0.00000000    1682       CTS   FIT  GFZ
## 2245 122400.00000000    30.00000000 59960 0.4166666666667
+    1   L64  0  0  0  0  0  0  0  0  0  0  0  0  0  0  0  0
+          0  0  0  0  0  0  0  0  0  0  0  0  0  0  0  0  0
+          0  0  0  0  0  0  0  0  0  0  0  0  0  0  0  0  0
+          0  0  0  0  0  0  0  0  0  0  0  0  0  0  0  0  0
+          0  0  0  0  0  0  0  0  0  0  0  0  0  0  0  0  0
++         0  0  0  0  0  0  0  0  0  0  0  0  0  0  0  0  0
++         0  0  0  0  0  0  0  0  0  0  0  0  0  0  0  0  0
++         0  0  0  0  0  0  0  0  0  0  0  0  0  0  0  0  0
++         0  0  0  0  0  0  0  0  0  0  0  0  0  0  0  0  0
++         0  0  0  0  0  0  0  0  0  0  0  0  0  0  0  0  0
%c L  cc GPS ccc cccc cccc cccc cccc ccccc ccccc ccccc ccccc
%c cc cc ccc ccc cccc cccc cccc cccc ccccc ccccc ccccc ccccc
%f  0.0000000  0.000000000  0.00000000000  0.000000000000000
%f  0.0000000  0.000000000  0.00000000000  0.000000000000000
%i    0    0    0    0      0      0      0      0         0
%i    0    0    0    0      0      0      0      0         0
/* CCCCCCCCCCCCCCCCCCCCCCCCCCCCCCCCCCCCCCCCCCCCCCCCCCCCCCCCCCCCCCCCCCCCCCCCCCCCC
/* C                             GFZ RSO-ORBIT                                 C
/* C DOI: https://doi.org/10.5880/GFZ_ORBIT/RSO/L64_G_v02                      C
/* C                                                                           C
/* C DORIS        RMS: not applicable                                          C
/* C GNSS-E Code  RMS: not applicable                                          C
/* C GNSS-E Phase RMS: not applicable                                          C
/* C GNSS-G Code  RMS:  51.101 [cm]   Obs.acc.:     14189 Obs.eli.:      1132  C
/* C GNSS-G Phase RMS:   4.142 [mm]   Obs.acc.:     14189 Obs.eli.:      1132  C
/* C SLR          RMS:   7.580 [cm]   Obs.acc.:        80 Obs.eli.:         0  C
/* C                                                                           C
/* CCCCCCCCCCCCCCCCCCCCCCCCCCCCCCCCCCCCCCCCCCCCCCCCCCCCCCCCCCCCCCCCCCCCCCCCCCCCC
*  2023  1 16 15  6  0.00000000
PL64   5986.462350   3132.087833   1267.607112   6594.120840
VL64 -10803.883442  -9673.179687  74831.465168 999999.999999
*  2023  1 16 15  6 30.00000000
PL64   5950.695997   3101.425572   1491.357413   6594.580101
VL64 -13038.937387 -10764.810370  74321.625148 999999.999999
*  2023  1 16 15  7  0.00000000
PL64   5908.238503   3067.520658   1713.454507   6595.039414
VL64 -15264.214848 -11834.755255  73729.431839 999999.999999
*  2023  1 16 15  7 30.00000000
PL64   5859.123052   3030.439867   1933.652321   6595.498696
VL64 -17477.147940 -12881.874386  73055.559020 999999.999999
*  2023  1 16 15  8  0.00000000
PL64   5803.390517   2990.253341   2151.706946   6595.958011
VL64 -19675.179338 -13905.065180  72300.774490 999999.999999
*  2023  1 16 15  8 30.00000000
PL64   5741.089421   2947.034469   2367.376913   6596.417480
VL64 -21855.766174 -14903.264376  71465.938097 999999.999999
*  2023  1 16 15  9  0.00000000
PL64   5672.275891   2900.859771   2580.423470   6596.876959
VL64 -24016.382863 -15875.448991  70551.999539 999999.999999
*  2023  1 16 15  9 30.00000000
PL64   5597.013601   2851.808773   2790.610844   6597.336538
VL64 -26154.523480 -16820.636804  69559.997396 999999.999999
*  2023  1 16 15 10  0.00000000
PL64   5515.373710   2799.963888   2997.706515   6597.796067
VL64 -28267.705441 -17737.887753  68491.058693 999999.999999
*  2023  1 16 15 10 30.00000000
PL64   5427.434783   2745.410281   3201.481470   6598.255407
VL64 -30353.473740 -18626.305495  67346.396139 999999.999999
*  2023  1 16 15 11  0.00000000
PL64   5333.282708   2688.235743   3401.710460   6598.714729
VL64 -32409.402274 -19485.037148  66127.305065 999999.999999
*  2023  1 16 15 11 30.00000000
PL64   5233.010606   2628.530556   3598.172248   6599.174133
VL64 -34433.094995 -20313.273109  64835.165281 999999.999999
*  2023  1 16 15 12  0.00000000
PL64   5126.718732   2566.387364   3790.649866   6599.633557
VL64 -36422.194805 -21110.250886  63471.442084 999999.999999
*  2023  1 16 15 12 30.00000000
PL64   5014.514342   2501.901022   3978.930854   6600.092988
VL64 -38374.391382 -21875.258315  62037.673839 999999.999999
*  2023  1 16 15 13  0.00000000
PL64   4896.511562   2435.168453   4162.807463   6600.552456
VL64 -40287.410693 -22607.628025  60535.462295 999999.999999
*  2023  1 16 15 13 30.00000000
PL64   4772.831302   2366.288519   4342.076859   6601.011995
VL64 -42159.007036 -23306.734387  58966.485176 999999.999999
*  2023  1 16 15 14  0.00000000
PL64   4643.601149   2295.361890   4516.541368   6601.471480
VL64 -43986.976384 -23971.999348  57332.504418 999999.999999
*  2023  1 16 15 14 30.00000000
PL64   4508.955223   2222.490895   4686.008717   6601.930944
VL64 -45769.168642 -24602.894355  55635.357301 999999.999999
*  2023  1 16 15 15  0.00000000
PL64   4369.034010   2147.779376   4850.292248   6602.390362
VL64 -47503.489654 -25198.938722  53876.948411 999999.999999
*  2023  1 16 15 15 30.00000000
PL64   4223.984197   2071.332547   5009.211111   6602.849801
VL64 -49187.900400 -25759.699776  52059.245343 999999.999999
*  2023  1 16 15 16  0.00000000
PL64   4073.958505   1993.256847   5162.590453   6603.309250
VL64 -50820.416247 -26284.793030  50184.277358 999999.999999
*  2023  1 16 15 16 30.00000000
PL64   3919.115524   1913.659794   5310.261599   6603.768727
VL64 -52399.109291 -26773.883115  48254.135210 999999.999999
*  2023  1 16 15 17  0.00000000
PL64   3759.619541   1832.649838   5452.062237   6604.228260
VL64 -53922.112306 -27226.684528  46270.967923 999999.999999
*  2023  1 16 15 17 30.00000000
PL64   3595.640348   1750.336214   5587.836583   6604.687817
VL64 -55387.620375 -27642.960582  44236.978439 999999.999999
*  2023  1 16 15 18  0.00000000
PL64   3427.353058   1666.828790   5717.435539   6605.147274
VL64 -56793.891223 -28022.522580  42154.421563 999999.999999
*  2023  1 16 15 18 30.00000000
PL64   3254.937917   1582.237934   5840.716849   6605.606759
VL64 -58139.247233 -28365.230185  40025.602529 999999.999999
*  2023  1 16 15 19  0.00000000
PL64   3078.580102   1496.674357   5957.545243   6606.066560
VL64 -59422.077944 -28670.991412  37852.873670 999999.999999
*  2023  1 16 15 19 30.00000000
PL64   2898.469520   1410.248978   6067.792576   6606.526293
VL64 -60640.840978 -28939.761569  35638.631166 999999.999999
*  2023  1 16 15 20  0.00000000
PL64   2714.800600   1323.072779   6171.337953   6606.986015
VL64 -61794.062938 -29171.542474  33385.313460 999999.999999
*  2023  1 16 15 20 30.00000000
PL64   2527.772088   1235.256666   6268.067858   6607.445712
VL64 -62880.341431 -29366.382238  31095.399194 999999.999999
*  2023  1 16 15 21  0.00000000
PL64   2337.586827   1146.911334   6357.876267   6607.905194
VL64 -63898.346480 -29524.374420  28771.404490 999999.999999
*  2023  1 16 15 21 30.00000000
PL64   2144.451541   1058.147130   6440.664756   6608.364722
VL64 -64846.821864 -29645.657291  26415.881698 999999.999999
*  2023  1 16 15 22  0.00000000
PL64   1948.576608    969.073918   6516.342614   6608.824284
VL64 -65724.588256 -29730.414089  24031.417073 999999.999999
*  2023  1 16 15 22 30.00000000
PL64   1750.175824    879.800946   6584.826931   6609.283787
VL64 -66530.545266 -29778.872590  21620.625569 999999.999999
*  2023  1 16 15 23  0.00000000
PL64   1549.466170    790.436712   6646.042680   6609.743393
VL64 -67263.670786 -29791.303614  19186.147162 999999.999999
*  2023  1 16 15 23 30.00000000
PL64   1346.667577    701.088839   6699.922790   6610.203177
VL64 -67923.021409 -29768.020366  16730.645825 999999.999999
*  2023  1 16 15 24  0.00000000
PL64   1142.002682    611.863950   6746.408217   6610.662845
VL64 -68507.734103 -29709.378286  14256.806887 999999.999999
*  2023  1 16 15 24 30.00000000
PL64    935.696595    522.867533   6785.447997   6611.122422
VL64 -69017.026451 -29615.774134  11767.334105 999999.999999
*  2023  1 16 15 25  0.00000000
PL64    727.976648    434.203830   6816.999308   6611.581990
VL64 -69450.197635 -29487.645610   9264.948132 999999.999999
*  2023  1 16 15 25 30.00000000
PL64    519.072150    345.975707   6841.027507   6612.041564
VL64 -69806.630356 -29325.471081   6752.383006 999999.999999
*  2023  1 16 15 26  0.00000000
PL64    309.214140    258.284534   6857.506170   6612.501116
VL64 -70085.791128 -29129.767831   4232.382478 999999.999999
*  2023  1 16 15 26 30.00000000
PL64     98.635128    171.230075   6866.417117   6612.960470
VL64 -70287.230862 -28901.091054   1707.698037 999999.999999
*  2023  1 16 15 27  0.00000000
PL64   -112.431158     84.910370   6867.750430   6613.419788
VL64 -70410.585956 -28640.033298   -818.914457 999999.999999
*  2023  1 16 15 27 30.00000000
PL64   -323.750022     -0.578371   6861.504459   6613.879113
VL64 -70455.578079 -28347.222562  -3344.698208 999999.999999
*  2023  1 16 15 28  0.00000000
PL64   -535.086067    -85.141873   6847.685826   6614.338498
VL64 -70422.014024 -28023.320747  -5866.896994 999999.999999
*  2023  1 16 15 28 30.00000000
PL64   -746.203441   -168.687899   6826.309417   6614.797968
VL64 -70309.786896 -27669.023247  -8382.756785 999999.999999
*  2023  1 16 15 29  0.00000000
PL64   -956.866103   -251.126345   6797.398373   6615.257606
VL64 -70118.877383 -27285.058619 -10889.529381 999999.999999
*  2023  1 16 15 29 30.00000000
PL64  -1166.838087   -332.369343   6760.984066   6615.717477
VL64 -69849.353102 -26872.187435 -13384.476715 999999.999999
*  2023  1 16 15 30  0.00000000
PL64  -1375.883757   -412.331353   6717.106064   6616.177403
VL64 -69501.367281 -26431.200586 -15864.872917 999999.999999
*  2023  1 16 15 30 30.00000000
PL64  -1583.768066   -490.929250   6665.812093   6616.637229
VL64 -69075.159486 -25962.917997 -18328.005406 999999.999999
*  2023  1 16 15 31  0.00000000
PL64  -1790.256816   -568.082412   6607.157992   6617.096937
VL64 -68571.056881 -25468.187739 -20771.178070 999999.999999
EOF
